{
    "links": {
        "self": "http://www.neowsapp.com/rest/v1/neo/3838193?api_key=iIulBulltgU6a56xZRHN4H3l9WmuAYTsLGpBGhQ2"
    },
    "id": "3838193",
    "neo_reference_id": "3838193",
    "name": "(2019 CY2)",
    "designation": "2019 CY2",
    "nasa_jpl_url": "http://ssd.jpl.nasa.gov/sbdb.cgi?sstr=3838193",
    "absolute_magnitude_h": 26.7,
    "estimated_diameter": {
        "kilometers": {
            "estimated_diameter_min": 0.0121494041,
            "estimated_diameter_max": 0.0271668934
        },
        "meters": {
            "estimated_diameter_min": 12.14940408,
            "estimated_diameter_max": 27.1668934089
        },
        "miles": {
            "estimated_diameter_min": 0.0075492874,
            "estimated_diameter_max": 0.0168807197
        },
        "feet": {
            "estimated_diameter_min": 39.8602508817,
            "estimated_diameter_max": 89.1302305717
        }
    },
    "is_potentially_hazardous_asteroid": false,
    "close_approach_data": [
        {
            "close_approach_date": "2019-02-12",
            "close_approach_date_full": "2019-Feb-12 03:34",
            "epoch_date_close_approach": 1549942440000,
            "relative_velocity": {
                "kilometers_per_second": "13.1502824793",
                "kilometers_per_hour": "47341.016925318",
                "miles_per_hour": "29415.8668778455"
            },
            "miss_distance": {
                "astronomical": "0.020573872",
                "lunar": "8.003236208",
                "kilometers": "3077807.42885264",
                "miles": "1912460.854300832"
            },
            "orbiting_body": "Earth"
        }
    ],
    "orbital_data": {
        "orbit_id": "5",
        "orbit_determination_date": "2019-02-14 07:18:25",
        "first_observation_date": "2019-02-08",
        "last_observation_date": "2019-02-12",
        "data_arc_in_days": 4,
        "observations_used": 27,
        "orbit_uncertainty": "8",
        "minimum_orbit_intersection": ".000758331",
        "jupiter_tisserand_invariant": "2.890",
        "epoch_osculation": "2458523.5",
        "eccentricity": ".6853486891016282",
        "semi_major_axis": "2.880895231582488",
        "inclination": ".9384054932323045",
        "ascending_node_longitude": "323.1945619285384",
        "orbital_period": "1786.033596444181",
        "perihelion_distance": ".9064774611782982",
        "perihelion_argument": "219.8242245168752",
        "aphelion_distance": "4.855313001986676",
        "perihelion_time": "2458554.821514825645",
        "mean_anomaly": "353.6867115155722",
        "mean_motion": ".2015639575407344",
        "equinox": "J2000",
        "orbit_class": {
            "orbit_class_type": "APO",
            "orbit_class_description": "Near-Earth asteroid orbits which cross the Earth’s orbit similar to that of 1862 Apollo",
            "orbit_class_range": "a (semi-major axis) > 1.0 AU; q (perihelion) < 1.017 AU"
        }
    },
    "is_sentry_object": false
}